API VERSION: 1.2
API SOURCE: NASA/JPL Horizons API

*******************************************************************************
 Revised: Feb 13, 2026          Juno Spacecraft  / (Sun, Jupiter)           -61 
                     http://www.nasa.gov/mission_pages/juno/main/index.html
                             http://missionjuno.swri.edu/#/mission
 
 NOTE: Post-launch trajectory begins at Centaur separation.

 2016-Oct-24: A slow-responding helium check-valve issue is being analyzed, 
  resulting in delay of the main-engine burn to reduce orbit period from 53.4 
  to 14 days. The next opportunity for the burn is December 11, 2016.

 BACKGROUND:
 The Juno spacecraft (New Frontiers mission-class) will investigate Jupiter's 
 origins, interior structure, deep atmosphere and magnetosphere, from a highly 
 elliptical polar orbit with a close perijove (PJ=1.06 Jupiter-radii, AJ= 39 
 Jupiter-radii), using a suite of seven science instruments.

 The Juno spacecraft launched aboard an Atlas V-551 rocket from Cape Canaveral, 
 Fla., on Aug. 2011 at 16:25 UTC. It reached Jupiter in July 2016.  
 
 The spacecraft will orbit Jupiter 76 times during its mission (now extended
 into 2025 from its original pre-launch 19-month, 34-orbit plan), coming within
 3,100 miles (5,000 kilometers) of the planet's cloud tops.

 MAJOR EVENTS 
  Launch        : Aug 5,  2011 16:25 UTC 
  Separation    : Aug 5,  2011 17:24:56.12  UTC
  DSM-1         : Aug 30, 2012 22:29        UTC (344.95 m/s)
  DSM-2         : Sep 3,  2012 22:29        UTC (387.77 m/s)
  Shadow entry  : Oct 9,  2013 19:19:36     UTC (alt.= 7069 km, umbral)
  Earth Flyby   : Oct 9,  2013 19:21:25     UTC (alt.= 558.848) 
                   (lat=-34.170 deg,E.long= 34.008 deg
  Shadow exit   : Oct 9,  2013 19:39:01     UTC (alt.= 14896 km, umbral)
  Arrive Jupiter: Jul 5,  2016 02:30 UTC    (JOI to 53.5-day capture orbit, 
                                             delta-v= 541.7 m/s)
  Period Reduction Maneuver:
                  Oct 19, 2016 (CANCELLED)  (Target 14-day orbit period,
                                             delta-v= 395.2 m/s)
  Ganymede flyby: Jun 07, 2021 (PJ34)       (1038 km from surface, per. 53->43 d) 
  Europa flyby  : Sep 29, 2022 (PJ45)       Period from 43->38 days
  Io flybys     : Dec 30, 2023 (PJ57)
                  Feb  3, 2024 (PJ58)       Period reduced to 33 days
  End of mission: Sep   , 2025 (PJ76)       Jupiter impact, 700 km below
                                             1-bar atmospheric pressure level)

 SPACECRAFT PHYSICAL  CHARACTERISTICS:
  * Solar-powered, spin-stablized spacecraft 
  * 1 rpm in interplanetary cruise, 2 rpm in Jupiter orbit
  * Three 2x9 m solar panels equally spaced around hexagonal bus (20 m span)
  * High-gain antenna

 INSTRUMENTS: Juno's scientific payload includes:
  * A gravity/radio science system
  * A six-wavelength microwave radiometer for atmospheric sounding 
     and composition
  * A vector magnetometer
  * Plasma and energetic particle detectors
  * A radio/plasma wave experiment
  * An ultraviolet imager/spectrometer
  * An infrared imager/spectrometer

 PROPULSION:
  * Bipropellant engine: Leros 1B, thrust= 635 N,  Isp= 316.2 s min.
  * RCS thrusters
  * Orbit trim maneuvers (OTMs) occur on each orbit at perijove +4 hrs, 
     beginning at PJ3. Target desired longitude at descending node after 
     perijove.
  * Total delta-V budget: 2107 m/s (~1852 m/s on bi-prop; remainder on RCS)

 SPACECRAFT TRAJECTORY (from JPL navigation team)
   The trajectory after 2026-Jan-13 is a planning prediction.

   Trajectory name                         Start (TDB)         Stop (TDB)
   ------------------------------        -----------------   -----------------
   spk_rec_110805_*_260212               2011-Aug-05 17:19   2026-Feb-10 02:03 
   juno_pred_orbit                       2026-Feb-10 02:03   2026-May-04 15:01
   spk_ref_251119_281001_260129          2026-May-04 15:01   2028-Sep-30 23:55
*******************************************************************************


*******************************************************************************
Ephemeris / API_USER Sat Feb 21 09:11:04 2026 Pasadena, USA      / Horizons
*******************************************************************************
Target body name: Juno (spacecraft) (-61)         {source: Juno_merged}
Center body name: Earth (399)                     {source: Juno_merged}
Center-site name: BODY CENTER
*******************************************************************************
Start time      : A.D. 2013-Oct-08 00:00:00.0000 TDB
Stop  time      : A.D. 2013-Oct-11 00:00:00.0000 TDB
Step-size       : 2 minutes
*******************************************************************************
Center geodetic : 0.0, 0.0, 0.0                   {E-lon(deg),Lat(deg),Alt(km)}
Center cylindric: 0.0, 0.0, 0.0                   {E-lon(deg),Dxy(km),Dz(km)}
Center radii    : 6378.137, 6378.137, 6356.752 km {Equator_a, b, pole_c}
Output units    : KM-S
Calendar mode   : Mixed Julian/Gregorian
Output type     : GEOMETRIC cartesian states
Output format   : 2 (position and velocity)
EOP file        : eop.260220.p260519
EOP coverage    : DATA-BASED 1962-JAN-20 TO 2026-FEB-20. PREDICTS-> 2026-MAY-18
Reference frame : ICRF
*******************************************************************************
            JDTDB,            Calendar Date (TDB),                      X,                      Y,                      Z,                     VX,                     VY,                     VZ,
**************************************************************************************************************************************************************************************************
$$SOE
2456574.402777778, A.D. 2013-Oct-08 21:40:00.0000, -6.478701514493501E+05, -4.693797743414587E+05, -2.092016392514571E+05,  8.244134982227976E+00,  5.864132921529703E+00,  2.553328681883745E+00,
2456574.404166667, A.D. 2013-Oct-08 21:42:00.0000, -6.468808521788581E+05, -4.686760757767116E+05, -2.088952386518812E+05,  8.244186223437190E+00,  5.864176511431378E+00,  2.553347987035777E+00,
2456574.405555556, A.D. 2013-Oct-08 21:44:00.0000, -6.458915467483168E+05, -4.679723719737823E+05, -2.085888357323263E+05,  8.244237649853071E+00,  5.864220224656782E+00,  2.553367348243627E+00,
2456574.406944444, A.D. 2013-Oct-08 21:46:00.0000, -6.449022351354527E+05, -4.672686629178390E+05, -2.082824304860502E+05,  8.244289262287147E+00,  5.864264061756211E+00,  2.553386765763572E+00,
2456574.408333333, A.D. 2013-Oct-08 21:48:00.0000, -6.439129173178945E+05, -4.665649485939837E+05, -2.079760229062802E+05,  8.244341061555950E+00,  5.864308023283217E+00,  2.553406239853445E+00,
2456574.409722222, A.D. 2013-Oct-08 21:50:00.0000, -6.429235932731730E+05, -4.658612289872516E+05, -2.076696129862122E+05,  8.244393048481072E+00,  5.864352109794620E+00,  2.553425770772641E+00,
2456574.411111111, A.D. 2013-Oct-08 21:52:00.0000, -6.419342629787198E+05, -4.651575040826112E+05, -2.073632007190112E+05,  8.244445223889192E+00,  5.864396321850542E+00,  2.553445358782134E+00,
2456574.412500000, A.D. 2013-Oct-08 21:54:00.0000, -6.409449264118670E+05, -4.644537738649632E+05, -2.070567860978104E+05,  8.244497588612118E+00,  5.864440660014425E+00,  2.553465004144487E+00,
2456574.413888889, A.D. 2013-Oct-08 21:56:00.0000, -6.399555835498468E+05, -4.637500383191407E+05, -2.067503691157118E+05,  8.244550143486828E+00,  5.864485124853060E+00,  2.553484707123862E+00,
2456574.415277778, A.D. 2013-Oct-08 21:58:00.0000, -6.389662343697904E+05, -4.630462974299087E+05, -2.064439497657854E+05,  8.244602889355507E+00,  5.864529716936604E+00,  2.553504467986036E+00,
2456574.416666667, A.D. 2013-Oct-08 22:00:00.0000, -6.379768788487278E+05, -4.623425511819632E+05, -2.061375280410692E+05,  8.244655827065589E+00,  5.864574436838613E+00,  2.553524286998410E+00,
2456574.418055556, A.D. 2013-Oct-08 22:02:00.0000, -6.369875169635869E+05, -4.616387995599316E+05, -2.058311039345690E+05,  8.244708957469797E+00,  5.864619285136058E+00,  2.553544164430020E+00,
2456574.419444445, A.D. 2013-Oct-08 22:04:00.0000, -6.359981486911930E+05, -4.609350425483715E+05, -2.055246774392583E+05,  8.244762281426187E+00,  5.864664262409362E+00,  2.553564100551555E+00,
2456574.420833333, A.D. 2013-Oct-08 22:06:00.0000, -6.350087740082680E+05, -4.602312801317710E+05, -2.052182485480781E+05,  8.244815799798182E+00,  5.864709369242411E+00,  2.553584095635362E+00,
2456574.422222222, A.D. 2013-Oct-08 22:08:00.0000, -6.340193928914301E+05, -4.595275122945475E+05, -2.049118172539364E+05,  8.244869513454621E+00,  5.864754606222591E+00,  2.553604149955466E+00,
2456574.423611111, A.D. 2013-Oct-08 22:10:00.0000, -6.330300053171925E+05, -4.588237390210481E+05, -2.046053835497083E+05,  8.244923423269791E+00,  5.864799973940807E+00,  2.553624263787577E+00,
2456574.425000000, A.D. 2013-Oct-08 22:12:00.0000, -6.320406112619638E+05, -4.581199602955484E+05, -2.042989474282358E+05,  8.244977530123485E+00,  5.864845472991510E+00,  2.553644437409106E+00,
2456574.426388889, A.D. 2013-Oct-08 22:14:00.0000, -6.310512107020461E+05, -4.574161761022529E+05, -2.039925088823274E+05,  8.245031834901031E+00,  5.864891103972727E+00,  2.553664671099175E+00,
2456574.427777778, A.D. 2013-Oct-08 22:16:00.0000, -6.300618036136350E+05, -4.567123864252937E+05, -2.036860679047581E+05,  8.245086338493341E+00,  5.864936867486082E+00,  2.553684965138635E+00,
2456574.429166667, A.D. 2013-Oct-08 22:18:00.0000, -6.290723899728191E+05, -4.560085912487307E+05, -2.033796244882689E+05,  8.245141041796948E+00,  5.864982764136826E+00,  2.553705319810073E+00,
2456574.430555556, A.D. 2013-Oct-08 22:20:00.0000, -6.280829697555791E+05, -4.553047905565510E+05, -2.030731786255670E+05,  8.245195945714062E+00,  5.865028794533862E+00,  2.553725735397830E+00,
2456574.431944444, A.D. 2013-Oct-08 22:22:00.0000, -6.270935429377869E+05, -4.546009843326682E+05, -2.027667303093253E+05,  8.245251051152607E+00,  5.865074959289774E+00,  2.553746212188011E+00,
2456574.433333333, A.D. 2013-Oct-08 22:24:00.0000, -6.261041094952051E+05, -4.538971725609225E+05, -2.024602795321823E+05,  8.245306359026261E+00,  5.865121259020849E+00,  2.553766750468503E+00,
2456574.434722222, A.D. 2013-Oct-08 22:26:00.0000, -6.251146694034864E+05, -4.531933552250794E+05, -2.021538262867416E+05,  8.245361870254508E+00,  5.865167694347114E+00,  2.553787350528983E+00,
2456574.436111111, A.D. 2013-Oct-08 22:28:00.0000, -6.241252226381729E+05, -4.524895323088304E+05, -2.018473705655724E+05,  8.245417585762684E+00,  5.865214265892355E+00,  2.553808012660934E+00,
